#aV2016  5  2  0  0  0.00000000     288 DD+AD WGS84 FIT  NGA
## 1895  86400.00000000   300.00000000 57510 0.0000000000000
+   31     1  2  3  5  6  7  8  9 10 11 12 13 14 15 16 17 18
+         19 20 21 22 23 24 25 26 27 28 29 30 31 32  0  0  0
+          0  0  0  0  0  0  0  0  0  0  0  0  0  0  0  0  0
+          0  0  0  0  0  0  0  0  0  0  0  0  0  0  0  0  0
+          0  0  0  0  0  0  0  0  0  0  0  0  0  0  0  0  0
++         2  2  2  2  2  2  2  2  2  2  2  2  2  2  2  2  2
++         2  2  2  2  2  2  2  2  2  2  2  2  2  2  0  0  0
++         0  0  0  0  0  0  0  0  0  0  0  0  0  0  0  0  0
++         0  0  0  0  0  0  0  0  0  0  0  0  0  0  0  0  0
++         0  0  0  0  0  0  0  0  0  0  0  0  0  0  0  0  0
%c cc cc ccc ccc cccc cccc cccc cccc ccccc ccccc ccccc ccccc
%c cc cc ccc ccc cccc cccc cccc cccc ccccc ccccc ccccc ccccc
%f  0.0000000  0.000000000  0.00000000000  0.000000000000000
%f  0.0000000  0.000000000  0.00000000000  0.000000000000000
%i    0    0    0    0      0      0      0      0         0
%i    0    0    0    0      0      0      0      0         0
/*      NGA, ST. LOUIS,MO.                                  
/*   EPHEMERIS COMPUTED FROM 2 DAYS OF DATA                 
/*   EPOCHA v2.4 SMOOTHER                                   
/*   G1762 IERS2010 SATAF SATAPC                            
*  2016  5  2  8 15  0.00000000
P  1 -12519.801615  21845.558893  -8149.187623     19.094819                    
V  1  -8982.622416   5728.086354  29654.975081      0.011658                    
P  2  20555.484202 -11934.754183 -10996.015485    594.108519                    
V  2  -7018.983030  13444.921442 -27056.113117     -0.020548                    
P  3  -5203.856439  14418.342738 -21685.027559    -53.531288                    
V  3 -26856.835618  -6160.863373   2340.749565     -0.039298                    
P  5  23038.217905  -4434.168113  12574.934350   -124.196813                    
V  5  15168.240025   5766.509423 -25424.621974      0.031059                    
P  6  16784.481862   2617.273146 -20403.526551    184.224086                    
V  6 -16745.175112  19822.941357 -11222.688530      0.055571                    
P  7   1735.179362  17788.749884  19646.130607    456.932898                    
V  7 -18117.085699  16946.217716 -14231.857040     -0.021173                    
P  8  -8650.483649  16366.803389  19085.618880    -33.576160                    
V  8  -8707.114070 -22542.340530  15460.931580     -0.014315                    
P  9   7406.668658  25471.333012  -1147.800446    121.127898                    
V  9  -3297.622147   -443.904339 -31605.013514      0.073775                    
P 10 -22872.847777 -10835.159138   8182.439286    -12.403205                    
V 10  10663.839124   -339.907818  29361.940902     -0.093236                    
P 11 -10324.912660  24400.108883    945.958337   -644.985354                    
V 11  -3876.028702  -3496.537714  30252.972850     -0.023573                    
P 12   9100.715908 -12314.938915 -21800.788484    378.314621                    
V 12  26211.506353   7734.829466   6824.071991      0.012785                    
P 13  13295.391304  -8103.463615  21398.905696    -14.972651                    
V 13   5736.917224  26830.124309   6468.435714     -0.026656                    
P 14 -14834.132177 -15153.675090 -15841.365347    -11.563645                    
V 14  -2899.314480 -20384.429239  21708.299055     -0.021104                    
P 15   6071.211622 -19303.412183  16900.223077   -309.061015                    
V 15  10179.201758  19584.827436  18921.471510     -0.016994                    
P 16 -23562.054101   1514.294711  12451.732465    -20.464602                    
V 16 -14761.468799  -5723.270409 -26637.403467      0.026441                    
P 17  14041.973724  18215.229367 -13115.732709   -203.525556                    
V 17   2640.510308  16992.614959  25601.635587     -0.002252                    
P 18 -13127.095926 -15855.276995  17461.458495    511.027610                    
V 18  21165.202773   1940.252062  17981.035121      0.042018                    
P 19  15668.314294   7767.778653 -20109.602350   -525.707366                    
V 19   4173.841007  24772.079952  13342.956220     -0.000113                    
P 20   9269.672470 -14165.250496  20325.950210    409.637051                    
V 20  25892.488819   4575.724345  -8510.470249      0.023850                    
P 21  -6175.545008 -16247.068579  20778.936630   -521.213793                    
V 21  17123.982316 -18071.718626  -9642.167685     -0.013667                    
P 22 -15622.090517  11081.776835 -18216.749151    351.031371                    
V 22 -22923.407328  -6360.371624  15454.306990     -0.078479                    
P 23   -370.227921  24034.503315 -10606.448439   -171.965804                    
V 23  -7301.806494 -12289.545031 -27557.183227     -0.017018                    
P 24  14418.273225 -21679.030473  -4750.372233    -16.414015                    
V 24   6404.231225  -2377.406392  30853.049678     -0.006081                    
P 25  -4557.163865 -15603.463896 -21168.706377   -163.769878                    
V 25  25982.201076   5226.769394  -9311.131060     -0.070768                    
P 26 -26194.184370  -3795.073164   2523.168326   -350.397083                    
V 26  -2556.134974  -3376.482012 -31504.052119     -0.129118                    
P 27 -14117.083780   4999.941504  21903.179344     88.162421                    
V 27  -8626.735787 -26483.135569    648.000606      0.039737                    
P 28  21033.257097  13246.143086  10041.777356    520.152229                    
V 28 -11726.848936  -1956.797267  28923.377488      0.026143                    
P 29  -3817.615467 -25987.092334  -4094.668171    657.133929                    
V 29   3442.922935   4481.810404 -31525.322519      0.000782                    
P 30  10665.120292  11104.726167  21631.271082    121.762953                    
V 30 -19944.850022  18966.796058      3.561027      0.032788                    
P 31 -18456.155538    177.222020 -19131.583865    270.997655                    
V 31  16276.429901 -18152.915527 -15430.631483     -0.018134                    
P 32 -15848.463341 -15308.812003 -14829.193559     -0.443420                    
V 32  -3812.758510 -18566.936288  23221.873961     -0.046901                    
EOF
